start=new Date('2023-03-12T00:00:00.000Z').valueOf();
sats=[{"MEAN_MOTION":"15.08841738","PERIOD":"95.437","LAUNCH_DATE":"2022-10-05","PERIAPSIS":"538.684","MEAN_MOTION_DDOT":"0.0000000000000","ECCENTRICITY":"0.00015270","OBJECT_TYPE":"PAYLOAD","BSTAR":"0.00009752300000","INCLINATION":"53.2193","MEAN_MOTION_DOT":"0.00001265","TIME_SYSTEM":"UTC","NORAD_CAT_ID":"54012","SEMIMAJOR_AXIS":"6917.875","MEAN_ELEMENT_THEORY":"SGP4","RA_OF_ASC_NODE":"75.8654","MEAN_ANOMALY":"258.7777","FILE":"3857581","APOAPSIS":"540.796","ELEMENT_SET_NO":"999","ARG_OF_PERICENTER":"101.3387","RCS_SIZE":"LARGE","DECAY_DATE":null,"OBJECT_NAME":"STARLINK-5126","EPHEMERIS_TYPE":"0","OBJECT_ID":"2022-125BA","GP_ID":"227860617","CENTER_NAME":"EARTH","REV_AT_EPOCH":"2442","SITE":"AFWTR","CLASSIFICATION_TYPE":"U","EPOCH":"2023-03-11T12:42:22.459104","COUNTRY_CODE":"US","REF_FRAME":"TEME","TLE_LINE2":"2 54012  53.2193  75.8654 0001527 101.3387 258.7777 15.08841738 24420","TLE_LINE1":"1 54012U 22125BA  23070.52942661  .00001265  00000-0  97523-4 0  9995"},{"COUNTRY_CODE":"US","REF_FRAME":"TEME","EPOCH":"2023-03-11T12:52:59.443104","TLE_LINE1":"1 54013U 22125BB  23070.53679911  .00016344  00000-0  10424-2 0  9999","TLE_LINE2":"2 54013  53.2179  75.9129 0001506  79.9491 280.1671 15.08847748 24470","OBJECT_ID":"2022-125BB","OBJECT_NAME":"STARLINK-5098","EPHEMERIS_TYPE":"0","GP_ID":"227861969","CLASSIFICATION_TYPE":"U","REV_AT_EPOCH":"2447","CENTER_NAME":"EARTH","SITE":"AFWTR","RA_OF_ASC_NODE":"75.9129","SEMIMAJOR_AXIS":"6917.857","TIME_SYSTEM":"UTC","MEAN_MOTION_DOT":"0.00016344","NORAD_CAT_ID":"54013","MEAN_ELEMENT_THEORY":"SGP4","DECAY_DATE":null,"RCS_SIZE":"LARGE","APOAPSIS":"540.764","MEAN_ANOMALY":"280.1671","FILE":"3857641","ARG_OF_PERICENTER":"79.9491","ELEMENT_SET_NO":"999","MEAN_MOTION_DDOT":"0.0000000000000","PERIAPSIS":"538.680","PERIOD":"95.437","MEAN_MOTION":"15.08847748","LAUNCH_DATE":"2022-10-05","INCLINATION":"53.2179","BSTAR":"0.00104240000000","OBJECT_TYPE":"PAYLOAD","ECCENTRICITY":"0.00015060"},{"CLASSIFICATION_TYPE":"U","CENTER_NAME":"EARTH","REV_AT_EPOCH":"2442","SITE":"AFWTR","OBJECT_NAME":"STARLINK-5116","EPHEMERIS_TYPE":"0","OBJECT_ID":"2022-125BC","GP_ID":"227859117","TLE_LINE1":"1 54014U 22125BC  23070.53311419  .00009985  00000-0  64452-3 0  9990","TLE_LINE2":"2 54014  53.2175  75.8896 0001442  94.5986 265.5171 15.08840547 24425","COUNTRY_CODE":"US","REF_FRAME":"TEME","EPOCH":"2023-03-11T12:47:41.066016","BSTAR":"0.00064452000000","INCLINATION":"53.2175","ECCENTRICITY":"0.00014420","OBJECT_TYPE":"PAYLOAD","PERIAPSIS":"538.746","MEAN_MOTION_DDOT":"0.0000000000000","MEAN_MOTION":"15.08840547","PERIOD":"95.438","LAUNCH_DATE":"2022-10-05","RCS_SIZE":"LARGE","DECAY_DATE":null,"MEAN_ANOMALY":"265.5171","FILE":"3857581","APOAPSIS":"540.741","ARG_OF_PERICENTER":"94.5986","ELEMENT_SET_NO":"999","RA_OF_ASC_NODE":"75.8896","TIME_SYSTEM":"UTC","MEAN_MOTION_DOT":"0.00009985","NORAD_CAT_ID":"54014","SEMIMAJOR_AXIS":"6917.879","MEAN_ELEMENT_THEORY":"SGP4"},{"ECCENTRICITY":"0.00015070","OBJECT_TYPE":"PAYLOAD","INCLINATION":"53.2196","BSTAR":"0.00025596000000","MEAN_MOTION":"15.08842876","PERIOD":"95.437","LAUNCH_DATE":"2022-10-05","PERIAPSIS":"538.694","MEAN_MOTION_DDOT":"0.0000000000000","MEAN_ANOMALY":"256.5039","FILE":"3857581","APOAPSIS":"540.779","ELEMENT_SET_NO":"999","ARG_OF_PERICENTER":"103.6121","RCS_SIZE":"LARGE","DECAY_DATE":null,"MEAN_MOTION_DOT":"0.00003788","TIME_SYSTEM":"UTC","NORAD_CAT_ID":"54015","SEMIMAJOR_AXIS":"6917.872","MEAN_ELEMENT_THEORY":"SGP4","RA_OF_ASC_NODE":"75.8235","CENTER_NAME":"EARTH","REV_AT_EPOCH":"2442","SITE":"AFWTR","CLASSIFICATION_TYPE":"U","OBJECT_NAME":"STARLINK-5055","EPHEMERIS_TYPE":"0","OBJECT_ID":"2022-125BD","GP_ID":"227860367","TLE_LINE2":"2 54015  53.2196  75.8235 0001507 103.6121 256.5039 15.08842876 24421","TLE_LINE1":"1 54015U 22125BD  23070.52205844  .00003788  00000-0  25596-3 0  9995","EPOCH":"2023-03-11T12:31:45.849216","COUNTRY_CODE":"US","REF_FRAME":"TEME"},{"SEMIMAJOR_AXIS":"6917.825","MEAN_MOTION_DOT":"0.00037321","NORAD_CAT_ID":"54051","TIME_SYSTEM":"UTC","MEAN_ELEMENT_THEORY":"SGP4","RA_OF_ASC_NODE":"214.9228","APOAPSIS":"540.621","MEAN_ANOMALY":"241.8899","FILE":"3857847","ELEMENT_SET_NO":"999","ARG_OF_PERICENTER":"118.2229","DECAY_DATE":null,"RCS_SIZE":"LARGE","PERIOD":"95.436","MEAN_MOTION":"15.08858081","LAUNCH_DATE":"2022-10-20","MEAN_MOTION_DDOT":"0.0000000000000","PERIAPSIS":"538.760","OBJECT_TYPE":"PAYLOAD","ECCENTRICITY":"0.00013450","INCLINATION":"53.2174","BSTAR":"0.00234950000000","EPOCH":"2023-03-11T19:43:43.192416","COUNTRY_CODE":"US","REF_FRAME":"TEME","TLE_LINE2":"2 54051  53.2174 214.9228 0001345 118.2229 241.8899 15.08858081 21700","TLE_LINE1":"1 54051U 22136A   23070.82202769  .00037321  00000-0  23495-2 0  9998","OBJECT_ID":"2022-136A","OBJECT_NAME":"STARLINK-5195","EPHEMERIS_TYPE":"0","GP_ID":"227892931","REV_AT_EPOCH":"2170","CENTER_NAME":"EARTH","SITE":"AFETR","CLASSIFICATION_TYPE":"U"},{"OBJECT_ID":"2022-136B","OBJECT_NAME":"STARLINK-5189","EPHEMERIS_TYPE":"0","GP_ID":"227893182","REV_AT_EPOCH":"2225","CENTER_NAME":"EARTH","SITE":"AFETR","CLASSIFICATION_TYPE":"U","EPOCH":"2023-03-11T16:55:27.258240","COUNTRY_CODE":"US","REF_FRAME":"TEME","TLE_LINE2":"2 54052  53.2192 174.9868 0001007 125.7369 234.3717 15.08845899 22259","TLE_LINE1":"1 54052U 22136B   23070.70517660 -.00004486  00000-0 -26393-3 0  9994","PERIOD":"95.437","MEAN_MOTION":"15.08845899","LAUNCH_DATE":"2022-10-20","MEAN_MOTION_DDOT":"0.0000000000000","PERIAPSIS":"539.031","OBJECT_TYPE":"PAYLOAD","ECCENTRICITY":"0.00010070","INCLINATION":"53.2192","BSTAR":"-0.00026393000000","SEMIMAJOR_AXIS":"6917.862","MEAN_MOTION_DOT":"-0.00004486","NORAD_CAT_ID":"54052","TIME_SYSTEM":"UTC","MEAN_ELEMENT_THEORY":"SGP4","RA_OF_ASC_NODE":"174.9868","APOAPSIS":"540.424","MEAN_ANOMALY":"234.3717","FILE":"3857847","ARG_OF_PERICENTER":"125.7369","ELEMENT_SET_NO":"999","DECAY_DATE":null,"RCS_SIZE":"LARGE"},{"MEAN_ELEMENT_THEORY":"SGP4","SEMIMAJOR_AXIS":"6917.817","NORAD_CAT_ID":"54053","MEAN_MOTION_DOT":"0.00016636","TIME_SYSTEM":"UTC","RA_OF_ASC_NODE":"214.6057","ELEMENT_SET_NO":"999","ARG_OF_PERICENTER":"93.2026","APOAPSIS":"540.591","MEAN_ANOMALY":"266.9117","FILE":"3857847","DECAY_DATE":null,"RCS_SIZE":"LARGE","LAUNCH_DATE":"2022-10-20","PERIOD":"95.436","MEAN_MOTION":"15.08860698","MEAN_MOTION_DDOT":"0.0000000000000","PERIAPSIS":"538.773","OBJECT_TYPE":"PAYLOAD","ECCENTRICITY":"0.00013140","BSTAR":"0.00106030000000","INCLINATION":"53.2182","EPOCH":"2023-03-11T21:13:48.480960","REF_FRAME":"TEME","COUNTRY_CODE":"US","TLE_LINE2":"2 54053  53.2182 214.6057 0001314  93.2026 266.9117 15.08860698 21710","TLE_LINE1":"1 54053U 22136C   23070.88458890  .00016636  00000-0  10603-2 0  9997","GP_ID":"227891930","OBJECT_ID":"2022-136C","EPHEMERIS_TYPE":"0","OBJECT_NAME":"STARLINK-5176","SITE":"AFETR","REV_AT_EPOCH":"2171","CENTER_NAME":"EARTH","CLASSIFICATION_TYPE":"U"},{"TLE_LINE2":"2 54054  53.2187 214.8553 0000734 115.4084 244.6984 15.08856815 21705","TLE_LINE1":"1 54054U 22136D   23070.81097346  .00004848  00000-0  32233-3 0  9992","EPOCH":"2023-03-11T19:27:48.106944","COUNTRY_CODE":"US","REF_FRAME":"TEME","REV_AT_EPOCH":"2170","CENTER_NAME":"EARTH","SITE":"AFETR","CLASSIFICATION_TYPE":"U","OBJECT_ID":"2022-136D","EPHEMERIS_TYPE":"0","OBJECT_NAME":"STARLINK-5163","GP_ID":"227892180","APOAPSIS":"540.202","MEAN_ANOMALY":"244.6984","FILE":"3857847","ARG_OF_PERICENTER":"115.4084","ELEMENT_SET_NO":"999","DECAY_DATE":null,"RCS_SIZE":"LARGE","SEMIMAJOR_AXIS":"6917.829","NORAD_CAT_ID":"54054","MEAN_MOTION_DOT":"0.00004848","TIME_SYSTEM":"UTC","MEAN_ELEMENT_THEORY":"SGP4","RA_OF_ASC_NODE":"214.8553","OBJECT_TYPE":"PAYLOAD","ECCENTRICITY":"0.00007340","BSTAR":"0.00032233000000","INCLINATION":"53.2187","PERIOD":"95.436","MEAN_MOTION":"15.08856815","LAUNCH_DATE":"2022-10-20","MEAN_MOTION_DDOT":"0.0000000000000","PERIAPSIS":"539.186"},{"CLASSIFICATION_TYPE":"U","CENTER_NAME":"EARTH","REV_AT_EPOCH":"2170","SITE":"AFETR","OBJECT_NAME":"STARLINK-5158","EPHEMERIS_TYPE":"0","OBJECT_ID":"2022-136E","GP_ID":"227892432","TLE_LINE1":"1 54055U 22136E   23070.81465962  .00004356  00000-0  29150-3 0  9994","TLE_LINE2":"2 54055  53.2170 214.8795 0000847 101.5623 258.5465 15.08851822 21707","COUNTRY_CODE":"US","REF_FRAME":"TEME","EPOCH":"2023-03-11T19:33:06.591168","BSTAR":"0.00029150000000","INCLINATION":"53.2170","ECCENTRICITY":"0.00008470","OBJECT_TYPE":"PAYLOAD","PERIAPSIS":"539.123","MEAN_MOTION_DDOT":"0.0000000000000","MEAN_MOTION":"15.08851822","PERIOD":"95.437","LAUNCH_DATE":"2022-10-20","RCS_SIZE":"LARGE","DECAY_DATE":null,"FILE":"3857847","MEAN_ANOMALY":"258.5465","APOAPSIS":"540.295","ARG_OF_PERICENTER":"101.5623","ELEMENT_SET_NO":"999","RA_OF_ASC_NODE":"214.8795","MEAN_MOTION_DOT":"0.00004356","TIME_SYSTEM":"UTC","NORAD_CAT_ID":"54055","SEMIMAJOR_AXIS":"6917.844","MEAN_ELEMENT_THEORY":"SGP4"},{"OBJECT_ID":"2022-136F","EPHEMERIS_TYPE":"0","OBJECT_NAME":"STARLINK-5226","GP_ID":"227892683","CLASSIFICATION_TYPE":"U","REV_AT_EPOCH":"2170","CENTER_NAME":"EARTH","SITE":"AFETR","COUNTRY_CODE":"US","REF_FRAME":"TEME","EPOCH":"2023-03-11T19:23:52.613376","TLE_LINE1":"1 54056U 22136F   23070.80824784  .00004865  00000-0  32341-3 0  9996","TLE_LINE2":"2 54056  53.2175 214.8351 0001233  83.8454 276.2678 15.08853452 21709","MEAN_MOTION_DDOT":"0.0000000000000","PERIAPSIS":"538.851","PERIOD":"95.437","MEAN_MOTION":"15.08853452","LAUNCH_DATE":"2022-10-20","INCLINATION":"53.2175","BSTAR":"0.00032341000000","OBJECT_TYPE":"PAYLOAD","ECCENTRICITY":"0.00012330","RA_OF_ASC_NODE":"214.8351","SEMIMAJOR_AXIS":"6917.839","NORAD_CAT_ID":"54056","MEAN_MOTION_DOT":"0.00004865","TIME_SYSTEM":"UTC","MEAN_ELEMENT_THEORY":"SGP4","DECAY_DATE":null,"RCS_SIZE":"LARGE","APOAPSIS":"540.557","FILE":"3857847","MEAN_ANOMALY":"276.2678","ELEMENT_SET_NO":"999","ARG_OF_PERICENTER":"83.8454"}];
